{
    "links": {
        "self": "http://www.neowsapp.com/rest/v1/neo/3394535?api_key=iIulBulltgU6a56xZRHN4H3l9WmuAYTsLGpBGhQ2"
    },
    "id": "3394535",
    "neo_reference_id": "3394535",
    "name": "(2007 VD184)",
    "designation": "2007 VD184",
    "nasa_jpl_url": "http://ssd.jpl.nasa.gov/sbdb.cgi?sstr=3394535",
    "absolute_magnitude_h": 23.2,
    "estimated_diameter": {
        "kilometers": {
            "estimated_diameter_min": 0.0608912622,
            "estimated_diameter_max": 0.1361570015
        },
        "meters": {
            "estimated_diameter_min": 60.8912622106,
            "estimated_diameter_max": 136.1570015386
        },
        "miles": {
            "estimated_diameter_min": 0.0378360645,
            "estimated_diameter_max": 0.0846040122
        },
        "feet": {
            "estimated_diameter_min": 199.7744887109,
            "estimated_diameter_max": 446.7093369279
        }
    },
    "is_potentially_hazardous_asteroid": false,
    "close_approach_data": [
        {
            "close_approach_date": "2007-12-09",
            "close_approach_date_full": "2007-Dec-09 06:53",
            "epoch_date_close_approach": 1197183180000,
            "relative_velocity": {
                "kilometers_per_second": "7.0313776089",
                "kilometers_per_hour": "25312.9593919469",
                "miles_per_hour": "15728.4885732905"
            },
            "miss_distance": {
                "astronomical": "0.0201225422",
                "lunar": "7.8276689158",
                "kilometers": "3010289.452105114",
                "miles": "1870507.1289700132"
            },
            "orbiting_body": "Earth"
        }
    ],
    "orbital_data": {
        "orbit_id": "12",
        "orbit_determination_date": "2017-04-06 09:05:14",
        "first_observation_date": "2007-10-31",
        "last_observation_date": "2008-01-31",
        "data_arc_in_days": 92,
        "observations_used": 41,
        "orbit_uncertainty": "7",
        "minimum_orbit_intersection": ".00171298",
        "jupiter_tisserand_invariant": "3.731",
        "epoch_osculation": "2459000.5",
        "eccentricity": ".5029160292566646",
        "semi_major_axis": "1.945593608216387",
        "inclination": "1.231272408378649",
        "ascending_node_longitude": "239.3341430845986",
        "orbital_period": "991.2349880211001",
        "perihelion_distance": ".9671233962250551",
        "perihelion_argument": "204.524800452321",
        "aphelion_distance": "2.924063820207719",
        "perihelion_time": "2459401.155587469596",
        "mean_anomaly": "214.4885791642533",
        "mean_motion": ".3631833060278707",
        "equinox": "J2000",
        "orbit_class": {
            "orbit_class_type": "APO",
            "orbit_class_description": "Near-Earth asteroid orbits which cross the Earth’s orbit similar to that of 1862 Apollo",
            "orbit_class_range": "a (semi-major axis) > 1.0 AU; q (perihelion) < 1.017 AU"
        }
    },
    "is_sentry_object": false
}